NORAD_CAT_ID,OBJECT_NAME,OBJECT_TYPE,EPOCH,MEAN_MOTION,ECCENTRICITY,INCLINATION,RA_OF_ASC_NODE,ARG_OF_PERICENTER,MEAN_ANOMALY,BSTAR,MEAN_MOTION_DOT,MEAN_MOTION_DDOT,TLE_LINE0,TLE_LINE1,TLE_LINE2,SEMIMAJOR_AXIS,PERIOD,APOGEE,PERIGEE,DECAYED
52862.0,STARLINK-4010,PAYLOAD,2022-07-17 14:00:01,15.73174401,0.0002947,53.2136,256.0991,13.1597,301.9487,0.0002066,0.00028444,0.0,0 STARLINK-4010,1 52862U 22062AJ  22198.58334491  .00028444  00000-0  20660-3 0  9993,2 52862  53.2136 256.0991 0002947  13.1597 301.9487 15.73174401  1304,6727.968000000003,91.535,351.816,347.85,0.0
52862.0,STARLINK-4010,PAYLOAD,2022-07-17 22:00:00,15.73218173,0.0002756,53.2153,254.4479,9.7935,34.2254,-0.0009934,-0.0013792,0.0,0 STARLINK-4010,1 52862U 22062AJ  22198.91667824 -.00137920  00000-0 -99340-3 0  9992,2 52862  53.2153 254.4479 0002756   9.7935  34.2254 15.73218173  1304,6727.843000000003,91.532,351.56300000000016,347.85400000000016,0.0
52862.0,STARLINK-4010,PAYLOAD,2022-07-18 06:00:00,15.73185781,0.0002776,53.214,252.7981,12.7634,120.1095,0.00017868,0.00024516,0.0,0 STARLINK-4010,1 52862U 22062AJ  22199.25001157  .00024516  00000-0  17868-3 0  9990,2 52862  53.2140 252.7981 0002776  12.7634 120.1095 15.73185781  5334,6727.936,91.534,351.668,347.93300000000005,0.0
52862.0,STARLINK-4010,PAYLOAD,2022-07-18 14:00:01,15.73186404,0.0003099,53.214,251.1501,11.6227,210.1785,0.00045561,0.00063782,0.0,0 STARLINK-4010,1 52862U 22062AJ  22199.58334491  .00063782  00000-0  45561-3 0  9995,2 52862  53.2140 251.1501 0003099  11.6227 210.1785 15.73186404  1302,6727.934,91.534,351.884,347.714,0.0
52862.0,STARLINK-4010,PAYLOAD,2022-07-18 22:00:00,15.73226919,0.0002865,53.2143,249.4985,12.0146,298.7315,-0.0004218,-0.00059484,0.0,0 STARLINK-4010,1 52862U 22062AJ  22199.91667824 -.00059484  00000-0 -42180-3 0  9991,2 52862  53.2143 249.4985 0002865  12.0146 298.7315 15.73226919  1303,6727.818,91.532,351.611,347.756,0.0
52862.0,STARLINK-4010,PAYLOAD,2022-07-19 06:00:00,15.73210001,0.0002881,53.2139,247.8492,11.438,28.2571,9.738e-05,0.00013074,0.0,0 STARLINK-4010,1 52862U 22062AJ  22200.25001157  .00013074  00000-0  97380-4 0  9998,2 52862  53.2139 247.8492 0002881  11.4380  28.2571 15.73210001  5493,6727.8669999999975,91.533,351.67,347.793,0.0
52862.0,STARLINK-4010,PAYLOAD,2022-07-19 14:00:01,15.7322418,0.0003133,53.2143,246.2021,9.5532,119.0893,-3.1648e-05,-5.068e-05,0.0,0 STARLINK-4010,1 52862U 22062AJ  22200.58334491 -.00005068  00000-0 -31648-4 0  9995,2 52862  53.2143 246.2021 0003133   9.5532 119.0893 15.73224180  1302,6727.826,91.532,351.7990000000001,347.583,0.0
52862.0,STARLINK-4010,PAYLOAD,2022-07-19 22:00:00,15.73161305,0.0003025,53.2159,244.5506,10.8469,206.7725,-0.00044831,-0.00062984,0.0,0 STARLINK-4010,1 52862U 22062AJ  22200.91667824 -.00062984  00000-0 -44831-3 0  9998,2 52862  53.2159 244.5506 0003025  10.8469 206.7725 15.73161305  1309,6728.005,91.535,351.906,347.835,0.0
52862.0,STARLINK-4010,PAYLOAD,2022-07-20 04:00:00,15.73265099,0.0002942,53.2141,243.3121,12.7223,181.6452,-0.00020109,-0.00028834,0.0,0 STARLINK-4010,1 52862U 22062AJ  22201.16667824 -.00028834  00000-0 -20109-3 0  9994,2 52862  53.2141 243.3121 0002942  12.7223 181.6452 15.73265099  5639,6727.71,91.529,351.55400000000014,347.595,0.0
52862.0,STARLINK-4010,PAYLOAD,2022-07-20 14:00:01,15.73202577,0.0002751,53.2174,241.2536,12.6493,22.7464,2.9775e-05,3.559e-05,0.0,0 STARLINK-4010,1 52862U 22062AJ  22201.58334491  .00003559  00000-0  29775-4 0  9995,2 52862  53.2174 241.2536 0002751  12.6493  22.7464 15.73202577  5706,6727.888000000001,91.533,351.60400000000016,347.902,0.0
52862.0,STARLINK-4010,PAYLOAD,2022-07-20 22:00:01,15.73132712,0.0003069,53.214,239.6006,12.7219,111.8271,0.00052189,0.00073063,0.0,0 STARLINK-4010,1 52862U 22062AJ  22201.91668981  .00073063  00000-0  52189-3 0  9997,2 52862  53.2140 239.6006 0003069  12.7219 111.8271 15.73132712  5756,6728.087,91.537,352.017,347.88699999999994,0.0
52862.0,STARLINK-4010,PAYLOAD,2022-07-21 14:00:01,15.73214777,0.0003338,53.2134,236.3038,11.0078,291.3182,-0.00015506,-0.00022348,0.0,0 STARLINK-4010,1 52862U 22062AJ  22202.58335648 -.00022348  00000-0 -15506-3 0  9996,2 52862  53.2134 236.3038 0003338  11.0078 291.3182 15.73214777  5861,6727.853,91.532,351.964,347.472,0.0
52862.0,STARLINK-4010,PAYLOAD,2022-07-21 22:00:00,15.73149962,0.0003006,53.2136,234.652,8.5344,22.6812,-5.7544e-05,-8.675e-05,0.0,0 STARLINK-4010,1 52862U 22062AJ  22202.91667824 -.00008675  00000-0 -57544-4 0  9993,2 52862  53.2136 234.6520 0003006   8.5344  22.6812 15.73149962  5913,6728.038000000001,91.536,351.925,347.88,0.0
52862.0,STARLINK-4010,PAYLOAD,2022-07-22 06:00:00,15.73163325,0.0003158,53.2138,233.0035,8.8061,111.2717,9.8035e-05,0.00013139,0.0,0 STARLINK-4010,1 52862U 22062AJ  22203.25001157  .00013139  00000-0  98035-4 0  9991,2 52862  53.2138 233.0035 0003158   8.8061 111.2717 15.73163325  1303,6728.0,91.535,351.98900000000015,347.74,0.0
52862.0,STARLINK-4010,PAYLOAD,2022-07-22 12:00:00,15.73145341,0.0003359,53.2139,231.7677,8.605,88.1446,0.00067178,0.00094523,0.0,0 STARLINK-4010,1 52862U 22062AJ  22203.50001157  .00094523  00000-0  67178-3 0  9998,2 52862  53.2139 231.7677 0003359   8.6050  88.1446 15.73145341  6001,6728.051,91.536,352.176,347.656,0.0
52862.0,STARLINK-4010,PAYLOAD,2022-07-22 22:00:00,15.73207029,0.0003159,53.2136,229.7036,8.9929,288.9323,0.000653,0.00092078,0.0,0 STARLINK-4010,1 52862U 22062AJ  22203.91667824  .00092078  00000-0  65300-3 0  9990,2 52862  53.2136 229.7036 0003159   8.9929 288.9323 15.73207029  1304,6727.875,91.533,351.865,347.615,0.0
52862.0,STARLINK-4010,PAYLOAD,2022-07-23 08:00:01,15.73250603,0.0003356,53.2141,227.6439,8.8566,130.2803,-0.00059858,-0.00084008,0.0,0 STARLINK-4010,1 52862U 22062AJ  22204.33334491 -.00084008  00000-0 -59858-3 0  9995,2 52862  53.2141 227.6439 0003356   8.8566 130.2803 15.73250603  6133,6727.751,91.53,351.874,347.358,0.0
52862.0,STARLINK-4010,PAYLOAD,2022-07-23 14:00:01,15.73182578,0.0003441,53.2135,226.4064,9.0494,106.8612,-2.6677e-05,-4.364e-05,0.0,0 STARLINK-4010,1 52862U 22062AJ  22204.58335648 -.00004364  00000-0 -26677-4 0  9998,2 52862  53.2135 226.4064 0003441   9.0494 106.8612 15.73182578  1301,6727.945,91.534,352.125,347.495,0.0
52862.0,STARLINK-4010,PAYLOAD,2022-07-23 22:00:00,15.73162031,0.0003179,53.2141,224.7548,11.9695,192.7932,0.00069207,0.00097499,0.0,0 STARLINK-4010,1 52862U 22062AJ  22204.91667824  .00097499  00000-0  69207-3 0  9993,2 52862  53.2141 224.7548 0003179  11.9695 192.7932 15.73162031  1300,6728.003000000002,91.535,352.00699999999995,347.73,0.0
52862.0,STARLINK-4010,PAYLOAD,2022-07-24 06:00:00,15.73223273,0.0003338,53.215,223.1066,13.3312,280.3357,5.6214e-05,7.282e-05,0.0,0 STARLINK-4010,1 52862U 22062AJ  22205.25001157  .00007282  00000-0  56214-4 0  9998,2 52862  53.2150 223.1066 0003338  13.3312 280.3357 15.73223273  6280,6727.829000000002,91.532,351.94,347.4480000000001,0.0
52862.0,STARLINK-4010,PAYLOAD,2022-07-24 14:00:01,15.73289877,0.0003458,53.2146,221.4577,9.3956,13.2401,-0.00056609,-0.00079658,0.0,0 STARLINK-4010,1 52862U 22062AJ  22205.58334491 -.00079658  00000-0 -56609-3 0  9999,2 52862  53.2146 221.4577 0003458   9.3956  13.2401 15.73289877  1308,6727.639,91.528,351.83,347.17800000000005,0.0
52862.0,STARLINK-4010,PAYLOAD,2022-07-24 22:00:00,15.73146803,0.0003157,53.2146,219.8062,6.6863,104.9312,0.00027713,0.00038369,0.0,0 STARLINK-4010,1 52862U 22062AJ  22205.91667824  .00038369  00000-0  27713-3 0  9991,2 52862  53.2146 219.8062 0003157   6.6863 104.9312 15.73146803  1301,6728.047,91.536,352.036,347.788,0.0
52862.0,STARLINK-4010,PAYLOAD,2022-07-25 14:00:01,15.73175577,0.0003421999999999,53.2138,216.5092,4.4924,284.9027,-0.00023479,-0.00033421,0.0,0 STARLINK-4010,1 52862U 22062AJ  22206.58334491 -.00033421  00000-0 -23479-3 0  9997,2 52862  53.2138 216.5092 0003422   4.4924 284.9027 15.73175577  6495,6727.965,91.535,352.13199999999995,347.527,0.0
52862.0,STARLINK-4010,PAYLOAD,2022-07-25 22:00:00,15.73126053,0.0003153,53.2139,214.8578,4.8236,13.4588,0.00058768,0.00082421,0.0,0 STARLINK-4010,1 52862U 22062AJ  22206.91667824  .00082421  00000-0  58768-3 0  9994,2 52862  53.2139 214.8578 0003153   4.8236  13.4588 15.73126053  1304,6728.106,91.537,352.092,347.85,0.0
52862.0,STARLINK-4010,PAYLOAD,2022-07-26 14:00:01,15.73207066,0.0003461999999999,53.2139,211.5608,6.115,189.9388,0.00011938,0.00016173,0.0,0 STARLINK-4010,1 52862U 22062AJ  22207.58334491  .00016173  00000-0  11938-3 0  9998,2 52862  53.2139 211.5608 0003462   6.1150 189.9388 15.73207066  1306,6727.875,91.533,352.069,347.411,0.0
52862.0,STARLINK-4010,PAYLOAD,2022-07-26 20:00:01,15.73195548,0.0003276999999999,53.2141,210.322,6.8388,165.9302,0.00050744,0.00071201,0.0,0 STARLINK-4010,1 52862U 22062AJ  22207.83334491  .00071201  00000-0  50744-3 0  9997,2 52862  53.2141 210.3220 0003277   6.8388 165.9302 15.73195548  6687,6727.908,91.533,351.978,347.5680000000001,0.0
52862.0,STARLINK-4010,PAYLOAD,2022-07-26 22:00:00,15.73200209,0.0003256,53.214,209.9094,8.0119,276.9936,0.00057177,0.00080411,0.0,0 STARLINK-4010,1 52862U 22062AJ  22207.91667824  .00080411  00000-0  57177-3 0  9995,2 52862  53.2140 209.9094 0003256   8.0119 276.9936 15.73200209  1303,6727.895,91.533,351.95,347.569,0.0
52862.0,STARLINK-4010,PAYLOAD,2022-07-27 14:00:01,15.73273824,0.0003472,53.2133,206.6118,6.3703,96.589,-0.00058758,-0.00082573,0.0,0 STARLINK-4010,1 52862U 22062AJ  22208.58334491 -.00082573  00000-0 -58758-3 0  9999,2 52862  53.2133 206.6118 0003472   6.3703  96.5890 15.73273824  1304,6727.685,91.529,351.886,347.214,0.0
52862.0,STARLINK-4010,PAYLOAD,2022-07-27 16:00:00,15.73245775,0.0003389,53.2134,206.1988,6.5324,208.6827,-0.00031587,-0.0004482,0.0,0 STARLINK-4010,1 52862U 22062AJ  22208.66667824 -.00044820  00000-0 -31587-3 0  9991,2 52862  53.2134 206.1988 0003389   6.5324 208.6827 15.73245775  6814,6727.765,91.531,351.91,347.35,0.0
